[{"OBJECT_NAME":"SITRO-AIS 8 (ANOKHIN)","OBJECT_ID":"2023-091AD","EPOCH":"2026-03-09T23:44:40.058592","MEAN_MOTION":15.29359179,"ECCENTRICITY":0.0012509,"INCLINATION":97.5169,"RA_OF_ASC_NODE":133.2823,"ARG_OF_PERICENTER":92.0171,"MEAN_ANOMALY":268.2501,"EPHEMERIS_TYPE":0,"CLASSIFICATION_TYPE":"U","NORAD_CAT_ID":57193,"ELEMENT_SET_NO":999,"REV_AT_EPOCH":14927,"BSTAR":0.00064982524,"MEAN_MOTION_DOT":0.00018494,"MEAN_MOTION_DDOT":0},{"OBJECT_NAME":"STARLINK-35862","OBJECT_ID":"2025-271M","EPOCH":"2026-03-09T11:27:43.364736","MEAN_MOTION":15.30197618,"ECCENTRICITY":7.934e-5,"INCLINATION":53.1564,"RA_OF_ASC_NODE":140.9573,"ARG_OF_PERICENTER":90.6009,"MEAN_ANOMALY":269.5083,"EPHEMERIS_TYPE":0,"CLASSIFICATION_TYPE":"U","NORAD_CAT_ID":66628,"ELEMENT_SET_NO":999,"REV_AT_EPOCH":1753,"BSTAR":0.00060038737,"MEAN_MOTION_DOT":0.00017463,"MEAN_MOTION_DDOT":0}]
